{"type": "FeatureCollection", "features": [ {"type": "Feature", "properties": {"norad_id": 29919, "name": "FENGYUN 1C DEB", "group": "fengyun-1c-debris", "lat": 33.08242139755527, "lon": 145.65619702182363, "alt_km": 925.4969283468554, "timestamp": "2025-12-23T20:42:37.348078+00:00", "meta": {"OBJECT_NAME": "FENGYUN 1C DEB", "OBJECT_ID": "1999-025HR", "EPOCH": "2025-12-23T04:05:15.719712", "MEAN_MOTION": 13.85127399, "ECCENTRICITY": 0.01369546, "INCLINATION": 98.4795, "RA_OF_ASC_NODE": 150.6066, "ARG_OF_PERICENTER": 315.1361, "MEAN_ANOMALY": 225.1246, "EPHEMERIS_TYPE": 0, "CLASSIFICATION_TYPE": "U", "NORAD_CAT_ID": 29919, "ELEMENT_SET_NO": 999, "REV_AT_EPOCH": 95679, "BSTAR": 0.00015730443, "MEAN_MOTION_DOT": 1.53e-06, "MEAN_MOTION_DDOT": 0}, "tle": {"line1": "1 29919U 99025HR  25357.17032083  .00000153  00000+0  15730-3 0  9998", "line2": "2 29919  98.4795 150.6066 0136954 315.1361 225.1246 13.85127399956792"}}, "geometry": {"type": "Point", "coordinates": [145.65619702182363, 33.08242139755527]}}, {"type": "Feature", "properties": {"norad_id": 29920, "name": "FENGYUN 1C DEB", "group": "fengyun-1c-debris", "lat": -67.55851878393251, "lon": -127.54981865705707, "alt_km": 819.887791004302, "timestamp": "2025-12-23T20:42:37.348088+00:00", "meta": {"OBJECT_NAME": "FENGYUN 1C DEB", "OBJECT_ID": "1999-025HS", "EPOCH": "2025-12-21T12:34:58.800288", "MEAN_MOTION": 14.03693596, "ECCENTRICITY": 0.01249732, "INCLINATION": 98.3912, "RA_OF_ASC_NODE": 209.3515, "ARG_OF_PERICENTER": 255.9523, "MEAN_ANOMALY": 102.7727, "EPHEMERIS_TYPE": 0, "CLASSIFICATION_TYPE": "U", "NORAD_CAT_ID": 29920, "ELEMENT_SET_NO": 999, "REV_AT_EPOCH": 96411, "BSTAR": 0.0011522683, "MEAN_MOTION_DOT": 1.901e-05, "MEAN_MOTION_DDOT": 0}, "tle": {"line1": "1 29920U 99025HS  25355.52429167  .00001901  00000+0  11523-2 0  9997", "line2": "2 29920  98.3912 209.3515 0124973 255.9523 102.7727 14.03693596964111"}}, "geometry": {"type": "Point", "coordinates": [-127.54981865705707, -67.55851878393251]}}, {"type": "Feature", "properties": {"norad_id": 29921, "name": "FENGYUN 1C DEB", "group": "fengyun-1c-debris", "lat": -62.783707088440146, "lon": 166.15616616369192, "alt_km": 908.203770208399, "timestamp": "2025-12-23T20:42:37.348098+00:00", "meta": {"OBJECT_NAME": "FENGYUN 1C DEB", "OBJECT_ID": "1999-025HT", "EPOCH": "2025-12-22T23:22:41.507328", "MEAN_MOTION": 14.06654926, "ECCENTRICITY": 0.0046115, "INCLINATION": 98.7867, "RA_OF_ASC_NODE": 2.7951, "ARG_OF_PERICENTER": 41.3461, "MEAN_ANOMALY": 24.409, "EPHEMERIS_TYPE": 0, "CLASSIFICATION_TYPE": "U", "NORAD_CAT_ID": 29921, "ELEMENT_SET_NO": 999, "REV_AT_EPOCH": 97020, "BSTAR": 0.00042357877, "MEAN_MOTION_DOT": 6.67e-06, "MEAN_MOTION_DDOT": 0}, "tle": {"line1": "1 29921U 99025HT  25356.97409152  .00000667  00000+0  42358-3 0  9999", "line2": "2 29921  98.7867   2.7951 0046115  41.3461  24.4090 14.06654926970200"}}, "geometry": {"type": "Point", "coordinates": [166.15616616369192, -62.783707088440146]}}, {"type": "Feature", "properties": {"norad_id": 29922, "name": "FENGYUN 1C DEB", "group": "fengyun-1c-debris", "lat": 67.97503991266115, "lon": 31.83512749139328, "alt_km": 895.6817802895985, "timestamp": "2025-12-23T20:42:37.348108+00:00", "meta": {"OBJECT_NAME": "FENGYUN 1C DEB", "OBJECT_ID": "1999-025HU", "EPOCH": "2025-12-23T03:12:39.969216", "MEAN_MOTION": 13.98583064, "ECCENTRICITY": 0.00925811, "INCLINATION": 99.1335, "RA_OF_ASC_NODE": 54.5422, "ARG_OF_PERICENTER": 338.2875, "MEAN_ANOMALY": 21.4374, "EPHEMERIS_TYPE": 0, "CLASSIFICATION_TYPE": "U", "NORAD_CAT_ID": 29922, "ELEMENT_SET_NO": 999, "REV_AT_EPOCH": 96586, "BSTAR": 7.9218111e-05, "MEAN_MOTION_DOT": 7.3e-07, "MEAN_MOTION_DDOT": 0}, "tle": {"line1": "1 29922U 99025HU  25357.13379594  .00000073  00000+0  79218-4 0  9992", "line2": "2 29922  99.1335  54.5422 0092581 338.2875  21.4374 13.98583064965861"}}, "geometry": {"type": "Point", "coordinates": [31.83512749139328, 67.97503991266115]}}, {"type": "Feature", "properties": {"norad_id": 29923, "name": "FENGYUN 1C DEB", "group": "fengyun-1c-debris", "lat": 17.203991205297736, "lon": -171.4447539274042, "alt_km": 834.5953894506683, "timestamp": "2025-12-23T20:42:37.348118+00:00", "meta": {"OBJECT_NAME": "FENGYUN 1C DEB", "OBJECT_ID": "1999-025HV", "EPOCH": "2025-12-22T19:18:43.083648", "MEAN_MOTION": 14.13909581, "ECCENTRICITY": 0.00179836, "INCLINATION": 98.6878, "RA_OF_ASC_NODE": 4.8133, "ARG_OF_PERICENTER": 141.2485, "MEAN_ANOMALY": 37.5072, "EPHEMERIS_TYPE": 0, "CLASSIFICATION_TYPE": "U", "NORAD_CAT_ID": 29923, "ELEMENT_SET_NO": 999, "REV_AT_EPOCH": 97417, "BSTAR": 0.00039954002, "MEAN_MOTION_DOT": 7.16e-06, "MEAN_MOTION_DDOT": 0}, "tle": {"line1": "1 29923U 99025HV  25356.80466532  .00000716  00000+0  39954-3 0  9991", "line2": "2 29923  98.6878   4.8133 0017983 141.2485  37.5072 14.13909581974178"}}, "geometry": {"type": "Point", "coordinates": [-171.4447539274042, 17.203991205297736]}}, {"type": "Feature", "properties": {"norad_id": 29924, "name": "FENGYUN 1C DEB", "group": "fengyun-1c-debris", "lat": -62.2078412523438, "lon": 27.432168603550494, "alt_km": 864.1994988485512, "timestamp": "2025-12-23T20:42:37.348128+00:00", "meta": {"OBJECT_NAME": "FENGYUN 1C DEB", "OBJECT_ID": "1999-025HW", "EPOCH": "2025-12-22T13:14:34.440864", "MEAN_MOTION": 14.0889304, "ECCENTRICITY": 0.00261293, "INCLINATION": 98.7338, "RA_OF_ASC_NODE": 9.2047, "ARG_OF_PERICENTER": 228.925, "MEAN_ANOMALY": 260.8942, "EPHEMERIS_TYPE": 0, "CLASSIFICATION_TYPE": "U", "NORAD_CAT_ID": 29924, "ELEMENT_SET_NO": 999, "REV_AT_EPOCH": 97346, "BSTAR": 8.6145435e-05, "MEAN_MOTION_DOT": 1.07e-06, "MEAN_MOTION_DDOT": 0}, "tle": {"line1": "1 29924U 99025HW  25356.55178751  .00000107  00000+0  86145-4 0  9996", "line2": "2 29924  98.7338   9.2047 0026129 228.9250 260.8942 14.08893040973463"}}, "geometry": {"type": "Point", "coordinates": [27.432168603550494, -62.2078412523438]}}, {"type": "Feature", "properties": {"norad_id": 29926, "name": "FENGYUN 1C DEB", "group": "fengyun-1c-debris", "lat": 63.98226143662709, "lon": -31.066130610605768, "alt_km": 938.4565728043726, "timestamp": "2025-12-23T20:42:37.348138+00:00", "meta": {"OBJECT_NAME": "FENGYUN 1C DEB", "OBJECT_ID": "1999-025HY", "EPOCH": "2025-12-23T05:38:47.258016", "MEAN_MOTION": 14.33419487, "ECCENTRICITY": 0.02478969, "INCLINATION": 98.284, "RA_OF_ASC_NODE": 345.6988, "ARG_OF_PERICENTER": 268.7804, "MEAN_ANOMALY": 158.385, "EPHEMERIS_TYPE": 0, "CLASSIFICATION_TYPE": "U", "NORAD_CAT_ID": 29926, "ELEMENT_SET_NO": 999, "REV_AT_EPOCH": 98731, "BSTAR": 0.00027732605, "MEAN_MOTION_DOT": 1.026e-05, "MEAN_MOTION_DDOT": 0}, "tle": {"line1": "1 29926U 99025HY  25357.23526919  .00001026  00000+0  27733-3 0  9995", "line2": "2 29926  98.2840 345.6988 0247896 268.7804 158.3850 14.33419487987317"}}, "geometry": {"type": "Point", "coordinates": [-31.066130610605768, 63.98226143662709]}}, {"type": "Feature", "properties": {"norad_id": 29927, "name": "FENGYUN 1C DEB", "group": "fengyun-1c-debris", "lat": 46.33564850459753, "lon": 13.506163595188855, "alt_km": 649.253410336054, "timestamp": "2025-12-23T20:42:37.348148+00:00", "meta": {"OBJECT_NAME": "FENGYUN 1C DEB", "OBJECT_ID": "1999-025HZ", "EPOCH": "2025-12-23T01:12:21.948192", "MEAN_MOTION": 14.7491707, "ECCENTRICITY": 0.00180346, "INCLINATION": 99.0822, "RA_OF_ASC_NODE": 22.2437, "ARG_OF_PERICENTER": 179.037, "MEAN_ANOMALY": 235.7049, "EPHEMERIS_TYPE": 0, "CLASSIFICATION_TYPE": "U", "NORAD_CAT_ID": 29927, "ELEMENT_SET_NO": 999, "REV_AT_EPOCH": 98799, "BSTAR": 0.0030102082, "MEAN_MOTION_DOT": 0.00020258, "MEAN_MOTION_DDOT": 0}, "tle": {"line1": "1 29927U 99025HZ  25357.05025403  .00020258  00000+0  30102-2 0  9999", "line2": "2 29927  99.0822  22.2437 0018034 179.0370 235.7049 14.74917070987996"}}, "geometry": {"type": "Point", "coordinates": [13.506163595188855, 46.33564850459753]}}, {"type": "Feature", "properties": {"norad_id": 29928, "name": "FENGYUN 1C DEB", "group": "fengyun-1c-debris", "lat": -66.50884662143842, "lon": 45.29985063595433, "alt_km": 1024.3169745620726, "timestamp": "2025-12-23T20:42:37.348159+00:00", "meta": {"OBJECT_NAME": "FENGYUN 1C DEB", "OBJECT_ID": "1999-025JA", "EPOCH": "2025-12-23T00:25:33.174048", "MEAN_MOTION": 13.88101444, "ECCENTRICITY": 0.01430669, "INCLINATION": 99.5836, "RA_OF_ASC_NODE": 21.5576, "ARG_OF_PERICENTER": 75.8051, "MEAN_ANOMALY": 315.5119, "EPHEMERIS_TYPE": 0, "CLASSIFICATION_TYPE": "U", "NORAD_CAT_ID": 29928, "ELEMENT_SET_NO": 999, "REV_AT_EPOCH": 95634, "BSTAR": 0.00062852807, "MEAN_MOTION_DOT": 7.67e-06, "MEAN_MOTION_DDOT": 0}, "tle": {"line1": "1 29928U 99025JA  25357.01774507  .00000767  00000+0  62853-3 0  9994", "line2": "2 29928  99.5836  21.5576 0143066  75.8051 315.5119 13.88101444956340"}}, "geometry": {"type": "Point", "coordinates": [45.29985063595433, -66.50884662143842]}}, {"type": "Feature", "properties": {"norad_id": 29929, "name": "FENGYUN 1C DEB", "group": "fengyun-1c-debris", "lat": -33.457744457586095, "lon": -77.74366533234883, "alt_km": 990.7915675495196, "timestamp": "2025-12-23T20:42:37.348170+00:00", "meta": {"OBJECT_NAME": "FENGYUN 1C DEB", "OBJECT_ID": "1999-025JB", "EPOCH": "2025-12-23T00:23:24.546048", "MEAN_MOTION": 14.01390252, "ECCENTRICITY": 0.01317182, "INCLINATION": 98.6246, "RA_OF_ASC_NODE": 275.6999, "ARG_OF_PERICENTER": 147.3905, "MEAN_ANOMALY": 229.7336, "EPHEMERIS_TYPE": 0, "CLASSIFICATION_TYPE": "U", "NORAD_CAT_ID": 29929, "ELEMENT_SET_NO": 999, "REV_AT_EPOCH": 96100, "BSTAR": 0.00093672522, "MEAN_MOTION_DOT": 1.484e-05, "MEAN_MOTION_DDOT": 0}, "tle": {"line1": "1 29929U 99025JB  25357.01625632  .00001484  00000+0  93673-3 0  9990", "line2": "2 29929  98.6246 275.6999 0131718 147.3905 229.7336 14.01390252961000"}}, "geometry": {"type": "Point", "coordinates": [-77.74366533234883, -33.457744457586095]}}]}